{
  "type": "FeatureCollection",
  "features": [
    {
      "type": "Feature",
      "properties": {
        "norad_id": 43823,
        "name": "GEO-KOMPSAT-2A",
        "group": "weather",
        "lat": -0.04277642727402509,
        "lon": 20.21329043276772,
        "alt_km": 35787.24269327994,
        "timestamp": "2025-12-09T11:33:54.442433+00:00",
        "meta_object_name": "GEO-KOMPSAT-2A",
        "meta_object_id": "2018-100A",
        "meta_epoch": "2025-12-08T09:04:40.751616",
        "meta_mean_motion": 1.00270893,
        "meta_eccentricity": 1.774e-05,
        "meta_inclination": 0.0576,
        "meta_ra_of_asc_node": 113.8278,
        "meta_arg_of_pericenter": 87.1447,
        "meta_mean_anomaly": 140.8536,
        "meta_ephemeris_type": 0,
        "meta_classification_type": "U",
        "meta_norad_cat_id": 43823,
        "meta_element_set_no": 999,
        "meta_rev_at_epoch": 2571,
        "meta_bstar": 0,
        "meta_mean_motion_dot": -3.41e-06,
        "meta_mean_motion_ddot": 0,
        "tle_line1": "1 43823U 18100A   25342.37824944 -.00000341  00000+0  00000+0 0  9994",
        "tle_line2": "2 43823   0.0576 113.8278 0000177  87.1447 140.8536  1.00270893 25718"
      },
      "geometry": {
        "type": "Point",
        "coordinates": [
          20.21329043276772,
          -0.04277642727402509
        ]
      }
    },
    {
      "type": "Feature",
      "properties": {
        "norad_id": 44387,
        "name": "METEOR-M2 2",
        "group": "weather",
        "lat": -58.79911685950823,
        "lon": 128.1814336950657,
        "alt_km": 817.9038301938826,
        "timestamp": "2025-12-09T11:33:54.442445+00:00",
        "meta_object_name": "METEOR-M2 2",
        "meta_object_id": "2019-038A",
        "meta_epoch": "2025-12-09T05:23:03.086592",
        "meta_mean_motion": 14.24289407,
        "meta_eccentricity": 0.00011,
        "meta_inclination": 98.8968,
        "meta_ra_of_asc_node": 322.9097,
        "meta_arg_of_pericenter": 154.7524,
        "meta_mean_anomaly": 205.3708,
        "meta_ephemeris_type": 0,
        "meta_classification_type": "U",
        "meta_norad_cat_id": 44387,
        "meta_element_set_no": 999,
        "meta_rev_at_epoch": 33425,
        "meta_bstar": 0.00020581,
        "meta_mean_motion_dot": 4.29e-06,
        "meta_mean_motion_ddot": 0,
        "tle_line1": "1 44387U 19038A   25343.22434128  .00000429  00000+0  20581-3 0  9993",
        "tle_line2": "2 44387  98.8968 322.9097 0001100 154.7524 205.3708 14.24289407334251"
      },
      "geometry": {
        "type": "Point",
        "coordinates": [
          128.1814336950657,
          -58.79911685950823
        ]
      }
    },
    {
      "type": "Feature",
      "properties": {
        "norad_id": 47719,
        "name": "ARKTIKA-M 1",
        "group": "weather",
        "lat": 45.72910769134816,
        "lon": -126.74656812579273,
        "alt_km": 23419.41567780066,
        "timestamp": "2025-12-09T11:33:54.442467+00:00",
        "meta_object_name": "ARKTIKA-M 1",
        "meta_object_id": "2021-016A",
        "meta_epoch": "2025-12-09T02:05:46.689216",
        "meta_mean_motion": 2.00743922,
        "meta_eccentricity": 0.7204271,
        "meta_inclination": 63.1782,
        "meta_ra_of_asc_node": 84.5148,
        "meta_arg_of_pericenter": 269.1088,
        "meta_mean_anomaly": 15.6099,
        "meta_ephemeris_type": 0,
        "meta_classification_type": "U",
        "meta_norad_cat_id": 47719,
        "meta_element_set_no": 999,
        "meta_rev_at_epoch": 3497,
        "meta_bstar": 0,
        "meta_mean_motion_dot": -3.4e-07,
        "meta_mean_motion_ddot": 0,
        "tle_line1": "1 47719U 21016A   25343.08734594 -.00000034  00000+0  00000+0 0  9991",
        "tle_line2": "2 47719  63.1782  84.5148 7204271 269.1088  15.6099  2.00743922 34976"
      },
      "geometry": {
        "type": "Point",
        "coordinates": [
          -126.74656812579273,
          45.72910769134816
        ]
      }
    },
    {
      "type": "Feature",
      "properties": {
        "norad_id": 49008,
        "name": "FENGYUN 3E",
        "group": "weather",
        "lat": -69.0809461238513,
        "lon": 140.28881189236202,
        "alt_km": 832.6873407577768,
        "timestamp": "2025-12-09T11:33:54.442478+00:00",
        "meta_object_name": "FENGYUN 3E",
        "meta_object_id": "2021-062A",
        "meta_epoch": "2025-12-09T03:37:19.405056",
        "meta_mean_motion": 14.19878484,
        "meta_eccentricity": 6.01e-05,
        "meta_inclination": 98.7472,
        "meta_ra_of_asc_node": 343.7143,
        "meta_arg_of_pericenter": 294.5995,
        "meta_mean_anomaly": 65.5119,
        "meta_ephemeris_type": 0,
        "meta_classification_type": "U",
        "meta_norad_cat_id": 49008,
        "meta_element_set_no": 999,
        "meta_rev_at_epoch": 22961,
        "meta_bstar": -7.1978e-07,
        "meta_mean_motion_dot": -4.5e-07,
        "meta_mean_motion_ddot": 0,
        "tle_line1": "1 49008U 21062A   25343.15091904 -.00000045  00000+0 -71978-6 0  9996",
        "tle_line2": "2 49008  98.7472 343.7143 0000601 294.5995  65.5119 14.19878484229616"
      },
      "geometry": {
        "type": "Point",
        "coordinates": [
          140.28881189236202,
          -69.0809461238513
        ]
      }
    },
    {
      "type": "Feature",
      "properties": {
        "norad_id": 51850,
        "name": "GOES 18",
        "group": "weather",
        "lat": 0.005846732756130052,
        "lon": 114.94481345367406,
        "alt_km": 35789.29054501113,
        "timestamp": "2025-12-09T11:33:54.442490+00:00",
        "meta_object_name": "GOES 18",
        "meta_object_id": "2022-021A",
        "meta_epoch": "2025-12-09T04:48:11.390112",
        "meta_mean_motion": 1.00270968,
        "meta_eccentricity": 7.15e-05,
        "meta_inclination": 0.0144,
        "meta_ra_of_asc_node": 96.5177,
        "meta_arg_of_pericenter": 203.431,
        "meta_mean_anomaly": 73.2925,
        "meta_ephemeris_type": 0,
        "meta_classification_type": "U",
        "meta_norad_cat_id": 51850,
        "meta_element_set_no": 999,
        "meta_rev_at_epoch": 468,
        "meta_bstar": 0,
        "meta_mean_motion_dot": 9.9e-07,
        "meta_mean_motion_ddot": 0,
        "tle_line1": "1 51850U 22021A   25343.20013183  .00000099  00000+0  00000+0 0  9997",
        "tle_line2": "2 51850   0.0144  96.5177 0000715 203.4310  73.2925  1.00270968  4680"
      },
      "geometry": {
        "type": "Point",
        "coordinates": [
          114.94481345367406,
          0.005846732756130052
        ]
      }
    },
    {
      "type": "Feature",
      "properties": {
        "norad_id": 54234,
        "name": "NOAA 21 (JPSS-2)",
        "group": "weather",
        "lat": -77.80148593401319,
        "lon": 54.427105286813884,
        "alt_km": 835.6340792421197,
        "timestamp": "2025-12-09T11:33:54.442501+00:00",
        "meta_object_name": "NOAA 21 (JPSS-2)",
        "meta_object_id": "2022-150A",
        "meta_epoch": "2025-12-09T01:52:43.747104",
        "meta_mean_motion": 14.19522549,
        "meta_eccentricity": 0.0002364,
        "meta_inclination": 98.7457,
        "meta_ra_of_asc_node": 279.4323,
        "meta_arg_of_pericenter": 45.2281,
        "meta_mean_anomaly": 314.9087,
        "meta_ephemeris_type": 0,
        "meta_classification_type": "U",
        "meta_norad_cat_id": 54234,
        "meta_element_set_no": 999,
        "meta_rev_at_epoch": 15957,
        "meta_bstar": 0.00010642,
        "meta_mean_motion_dot": 1.8e-06,
        "meta_mean_motion_ddot": 0,
        "tle_line1": "1 54234U 22150A   25343.07828411  .00000180  00000+0  10642-3 0  9990",
        "tle_line2": "2 54234  98.7457 279.4323 0002364  45.2281 314.9087 14.19522549159578"
      },
      "geometry": {
        "type": "Point",
        "coordinates": [
          54.427105286813884,
          -77.80148593401319
        ]
      }
    },
    {
      "type": "Feature",
      "properties": {
        "norad_id": 54743,
        "name": "METEOSAT-12 (MTG-I1)",
        "group": "weather",
        "lat": -0.49379437973645435,
        "lon": -108.27552520319053,
        "alt_km": 35779.0547914387,
        "timestamp": "2025-12-09T11:33:54.442513+00:00",
        "meta_object_name": "METEOSAT-12 (MTG-I1)",
        "meta_object_id": "2022-170C",
        "meta_epoch": "2025-12-09T03:18:00.622080",
        "meta_mean_motion": 1.00275126,
        "meta_eccentricity": 0.0001453,
        "meta_inclination": 0.7262,
        "meta_ra_of_asc_node": 31.0448,
        "meta_arg_of_pericenter": 223.9938,
        "meta_mean_anomaly": 232.374,
        "meta_ephemeris_type": 0,
        "meta_classification_type": "U",
        "meta_norad_cat_id": 54743,
        "meta_element_set_no": 999,
        "meta_rev_at_epoch": 1107,
        "meta_bstar": 0,
        "meta_mean_motion_dot": -4e-08,
        "meta_mean_motion_ddot": 0,
        "tle_line1": "1 54743U 22170C   25343.13750720 -.00000004  00000+0  00000+0 0  9990",
        "tle_line2": "2 54743   0.7262  31.0448 0001453 223.9938 232.3740  1.00275126 11075"
      },
      "geometry": {
        "type": "Point",
        "coordinates": [
          -108.27552520319053,
          -0.49379437973645435
        ]
      }
    }
  ]
}